[
    {
        "Altitude(m)": 612502.1878793899,
        "Argument of Periapsis(deg)": 0.0,
        "Eccentricity": 0.0,
        "Inclination(deg)": 60.0,
        "Latitude(deg)": -28.13595137378308,
        "Longitude(deg)": 82.14826137286585,
        "Mean Anomaly(deg)": -32.727299999999985,
        "RAAN(deg)": 200.0,
        "Satellite Name": "Test1 900",
        "Satellite Number": 900,
        "Semi-Major Axis(m)": 6980739.136638005,
        "Time(s)": 0
    },
    {
        "Altitude(m)": 612308.6358069453,
        "Argument of Periapsis(deg)": 0.00010418945913296404,
        "Eccentricity": 0.0,
        "Inclination(deg)": 60.0,
        "Latitude(deg)": -27.623006537539545,
        "Longitude(deg)": 82.50173519539337,
        "Mean Anomaly(deg)": -32.10719385453813,
        "RAAN(deg)": 199.99957995086027,
        "Satellite Name": "Test1 900",
        "Satellite Number": 900,
        "Semi-Major Axis(m)": 6980739.136638005,
        "Time(s)": 10
    },
    {
        "Altitude(m)": 612116.0526443714,
        "Argument of Periapsis(deg)": 0.0002083789182659281,
        "Eccentricity": 0.0,
        "Inclination(deg)": 60.0,
        "Latitude(deg)": -27.108892842066844,
        "Longitude(deg)": 82.851557865866,
        "Mean Anomaly(deg)": -31.487087709076405,
        "RAAN(deg)": 199.9991599017205,
        "Satellite Name": "Test1 900",
        "Satellite Number": 900,
        "Semi-Major Axis(m)": 6980739.136638005,
        "Time(s)": 20
    },
    {
        "Altitude(m)": 611924.5079782567,
        "Argument of Periapsis(deg)": 0.00031256837739889213,
        "Eccentricity": 0.0,
        "Inclination(deg)": 60.0,
        "Latitude(deg)": -26.593644602725618,
        "Longitude(deg)": 83.19783380057969,
        "Mean Anomaly(deg)": -30.866981563614555,
        "RAAN(deg)": 199.99873985258077,
        "Satellite Name": "Test1 900",
        "Satellite Number": 900,
        "Semi-Major Axis(m)": 6980739.136638005,
        "Time(s)": 30
    },
    {
        "Altitude(m)": 611734.0707885766,
        "Argument of Periapsis(deg)": 0.0004167578365318562,
        "Eccentricity": 0.0,
        "Inclination(deg)": 60.0,
        "Latitude(deg)": -26.077295285534767,
        "Longitude(deg)": 83.5406656982402,
        "Mean Anomaly(deg)": -30.246875418152726,
        "RAAN(deg)": 199.99831980344103,
        "Satellite Name": "Test1 900",
        "Satellite Number": 900,
        "Semi-Major Axis(m)": 6980739.136638005,
        "Time(s)": 40
    },
    {
        "Altitude(m)": 611544.8094181827,
        "Argument of Periapsis(deg)": 0.0005209472956648203,
        "Eccentricity": 0.0,
        "Inclination(deg)": 60.0,
        "Latitude(deg)": -25.559877539573574,
        "Longitude(deg)": 83.88015359522353,
        "Mean Anomaly(deg)": -29.626769272690876,
        "RAAN(deg)": 199.9978997543013,
        "Satellite Name": "Test1 900",
        "Satellite Number": 900,
        "Semi-Major Axis(m)": 6980739.136638005,
        "Time(s)": 50
    },
    {
        "Altitude(m)": 611356.7915425717,
        "Argument of Periapsis(deg)": 0.0006251367547977843,
        "Eccentricity": 0.0,
        "Inclination(deg)": 60.0,
        "Latitude(deg)": -25.04142322827999,
        "Longitude(deg)": 84.2163954329545,
        "Mean Anomaly(deg)": -29.006663127229043,
        "RAAN(deg)": 199.99747970516154,
        "Satellite Name": "Test1 900",
        "Satellite Number": 900,
        "Semi-Major Axis(m)": 6980739.136638005,
        "Time(s)": 60
    },
    {
        "Altitude(m)": 611170.0841399605,
        "Argument of Periapsis(deg)": 0.0007293262139307483,
        "Eccentricity": 0.0,
        "Inclination(deg)": 60.0,
        "Latitude(deg)": -24.521963459682453,
        "Longitude(deg)": 84.54948762447262,
        "Mean Anomaly(deg)": -28.386556981767193,
        "RAAN(deg)": 199.9970596560218,
        "Satellite Name": "Test1 900",
        "Satellite Number": 900,
        "Semi-Major Axis(m)": 6980739.136638005,
        "Time(s)": 70
    },
    {
        "Altitude(m)": 610984.7534616716,
        "Argument of Periapsis(deg)": 0.0008335156730637124,
        "Eccentricity": 0.0,
        "Inclination(deg)": 60.0,
        "Latitude(deg)": -24.00152861560407,
        "Longitude(deg)": 84.87952410726204,
        "Mean Anomaly(deg)": -27.766450836305363,
        "RAAN(deg)": 199.99663960688207,
        "Satellite Name": "Test1 900",
        "Satellite Number": 900,
        "Semi-Major Axis(m)": 6980739.136638005,
        "Time(s)": 80
    },
    {
        "Altitude(m)": 610800.8650028481,
        "Argument of Periapsis(deg)": 0.0009377051321966765,
        "Eccentricity": 0.0,
        "Inclination(deg)": 60.0,
        "Latitude(deg)": -23.48014837987413,
        "Longitude(deg)": 85.20659690804787,
        "Mean Anomaly(deg)": -27.14634469084351,
        "RAAN(deg)": 199.99621955774234,
        "Satellite Name": "Test1 900",
        "Satellite Number": 900,
        "Semi-Major Axis(m)": 6980739.136638005,
        "Time(s)": 90
    },
    {
        "Altitude(m)": 610618.4834735192,
        "Argument of Periapsis(deg)": 0.0010418945913296407,
        "Eccentricity": 0.0,
        "Inclination(deg)": 60.0,
        "Latitude(deg)": -22.957851765584145,
        "Longitude(deg)": 85.53079670665493,
        "Mean Anomaly(deg)": -26.526238545381684,
        "RAAN(deg)": 199.99579950860257,
        "Satellite Name": "Test1 900",
        "Satellite Number": 900,
        "Semi-Major Axis(m)": 6980739.136638005,
        "Time(s)": 100
    },
    {
        "Altitude(m)": 610437.6727700186,
        "Argument of Periapsis(deg)": 0.0011460840504626045,
        "Eccentricity": 0.0,
        "Inclination(deg)": 60.0,
        "Latitude(deg)": -22.434667141423684,
        "Longitude(deg)": 85.85221188602904,
        "Mean Anomaly(deg)": -25.90613239991983,
        "RAAN(deg)": 199.99537945946284,
        "Satellite Name": "Test1 900",
        "Satellite Number": 900,
        "Semi-Major Axis(m)": 6980739.136638005,
        "Time(s)": 110
    },
    {
        "Altitude(m)": 610258.4959467923,
        "Argument of Periapsis(deg)": 0.0012502735095955685,
        "Eccentricity": 0.0,
        "Inclination(deg)": 60.0,
        "Latitude(deg)": -21.910622257129766,
        "Longitude(deg)": 86.1709290941474,
        "Mean Anomaly(deg)": -25.286026254458005,
        "RAAN(deg)": 199.9949594103231,
        "Satellite Name": "Test1 900",
        "Satellite Number": 900,
        "Semi-Major Axis(m)": 6980739.136638005,
        "Time(s)": 120
    },
    {
        "Altitude(m)": 610081.0151885652,
        "Argument of Periapsis(deg)": 0.0013544629687285324,
        "Eccentricity": 0.0,
        "Inclination(deg)": 60.0,
        "Latitude(deg)": -21.38574426808381,
        "Longitude(deg)": 86.48703380493153,
        "Mean Anomaly(deg)": -24.665920108996254,
        "RAAN(deg)": 199.9945393611833,
        "Satellite Name": "Test1 900",
        "Satellite Number": 900,
        "Semi-Major Axis(m)": 6980739.136638005,
        "Time(s)": 130
    },
    {
        "Altitude(m)": 609905.291782954,
        "Argument of Periapsis(deg)": 0.0014586524278614966,
        "Eccentricity": 0.0,
        "Inclination(deg)": 60.0,
        "Latitude(deg)": -20.860059759089232,
        "Longitude(deg)": 86.80060936528304,
        "Mean Anomaly(deg)": -24.045813963534325,
        "RAAN(deg)": 199.9941193120436,
        "Satellite Name": "Test1 900",
        "Satellite Number": 900,
        "Semi-Major Axis(m)": 6980739.136638005,
        "Time(s)": 140
    },
    {
        "Altitude(m)": 609731.3860934608,
        "Argument of Periapsis(deg)": 0.0015628418869944607,
        "Eccentricity": 0.0,
        "Inclination(deg)": 60.0,
        "Latitude(deg)": -20.33359476736208,
        "Longitude(deg)": 87.11173755398242,
        "Mean Anomaly(deg)": -23.425707818072574,
        "RAAN(deg)": 199.99369926290387,
        "Satellite Name": "Test1 900",
        "Satellite Number": 900,
        "Semi-Major Axis(m)": 6980739.136638005,
        "Time(s)": 150
    },
    {
        "Altitude(m)": 609559.3575329118,
        "Argument of Periapsis(deg)": 0.0016670313461274247,
        "Eccentricity": 0.0,
        "Inclination(deg)": 60.0,
        "Latitude(deg)": -19.806374804763337,
        "Longitude(deg)": 87.4204991395817,
        "Mean Anomaly(deg)": -22.805601672610745,
        "RAAN(deg)": 199.9932792137641,
        "Satellite Name": "Test1 900",
        "Satellite Number": 900,
        "Semi-Major Axis(m)": 6980739.136638005,
        "Time(s)": 160
    },
    {
        "Altitude(m)": 609389.2645373543,
        "Argument of Periapsis(deg)": 0.0017712208052603888,
        "Eccentricity": 0.0,
        "Inclination(deg)": 60.0,
        "Latitude(deg)": -19.278424879307444,
        "Longitude(deg)": 87.7269729244202,
        "Mean Anomaly(deg)": -22.18549552714889,
        "RAAN(deg)": 199.99285916462435,
        "Satellite Name": "Test1 900",
        "Satellite Number": 900,
        "Semi-Major Axis(m)": 6980739.136638005,
        "Time(s)": 170
    },
    {
        "Altitude(m)": 609221.1645403772,
        "Argument of Periapsis(deg)": 0.001875410264393353,
        "Eccentricity": 0.0,
        "Inclination(deg)": 60.0,
        "Latitude(deg)": -18.749769515972723,
        "Longitude(deg)": 88.03123630051891,
        "Mean Anomaly(deg)": -21.565389381687062,
        "RAAN(deg)": 199.99243911548464,
        "Satellite Name": "Test1 900",
        "Satellite Number": 900,
        "Semi-Major Axis(m)": 6980739.136638005,
        "Time(s)": 180
    },
    {
        "Altitude(m)": 609055.1139479475,
        "Argument of Periapsis(deg)": 0.0019795997235263173,
        "Eccentricity": 0.0,
        "Inclination(deg)": 60.0,
        "Latitude(deg)": -18.220432776843865,
        "Longitude(deg)": 88.3333658044912,
        "Mean Anomaly(deg)": -20.94528323622531,
        "RAAN(deg)": 199.9920190663449,
        "Satellite Name": "Test1 900",
        "Satellite Number": 900,
        "Semi-Major Axis(m)": 6980739.136638005,
        "Time(s)": 190
    }
]